{"fetched_at":"2026-03-30T13:17:50Z","count":15418,"tles":[{"name":"STARLINK-35736","line1":"1 66230U 25244AA  26087.85895436  .00021685  00000+0  74190-3 0  9990","line2":"2 66230  53.1608 140.9199 0001481  86.4990 273.6180 15.30210890 24591","category":"Starlink"}]}